{"type": "FeatureCollection", "features": [ {"type": "Feature", "properties": {"norad_id": 38062, "name": "COSMOS 2251 DEB", "group": "cosmos-2251-debris", "lat": 69.48180341419234, "lon": 3.848214753015737, "alt_km": 570.4067933446377, "timestamp": "2025-12-01T03:58:49.149429+00:00", "meta": {"OBJECT_NAME": "COSMOS 2251 DEB", "OBJECT_ID": "1993-036BRU", "EPOCH": "2025-11-30T17:10:53.742720", "MEAN_MOTION": 14.93896276, "ECCENTRICITY": 0.0011879, "INCLINATION": 74.0086, "RA_OF_ASC_NODE": 314.734, "ARG_OF_PERICENTER": 83.9086, "MEAN_ANOMALY": 94.2953, "EPHEMERIS_TYPE": 0, "CLASSIFICATION_TYPE": "U", "NORAD_CAT_ID": 38062, "ELEMENT_SET_NO": 999, "REV_AT_EPOCH": 62850, "BSTAR": 0.0021976, "MEAN_MOTION_DOT": 0.00023445, "MEAN_MOTION_DDOT": 0, "GROUP": "cosmos-2251-debris"}, "tle": {"line1": "1 38062U 93036BRU 25334.71589980  .00023445  00000+0  21976-2 0  9998", "line2": "2 38062  74.0086 314.7340 0011879  83.9086  94.2953 14.93896276628506"}}, "geometry": {"type": "Point", "coordinates": [3.848214753015737, 69.48180341419234]}}, {"type": "Feature", "properties": {"norad_id": 38064, "name": "COSMOS 2251 DEB", "group": "cosmos-2251-debris", "lat": 35.34171302970139, "lon": -45.61480297804847, "alt_km": 721.8932015192568, "timestamp": "2025-12-01T03:58:49.149439+00:00", "meta": {"OBJECT_NAME": "COSMOS 2251 DEB", "OBJECT_ID": "1993-036BRW", "EPOCH": "2025-11-29T18:20:39.201504", "MEAN_MOTION": 14.56129862, "ECCENTRICITY": 0.00475593, "INCLINATION": 74.0214, "RA_OF_ASC_NODE": 148.7678, "ARG_OF_PERICENTER": 270.3929, "MEAN_ANOMALY": 89.1785, "EPHEMERIS_TYPE": 0, "CLASSIFICATION_TYPE": "U", "NORAD_CAT_ID": 38064, "ELEMENT_SET_NO": 999, "REV_AT_EPOCH": 71676, "BSTAR": 0.00081727868, "MEAN_MOTION_DOT": 3.633e-05, "MEAN_MOTION_DDOT": 0, "GROUP": "cosmos-2251-debris"}, "tle": {"line1": "1 38064U 93036BRW 25333.76434261  .00003633  00000+0  81728-3 0  9994", "line2": "2 38064  74.0214 148.7678 0047559 270.3929  89.1785 14.56129862716763"}}, "geometry": {"type": "Point", "coordinates": [-45.61480297804847, 35.34171302970139]}}, {"type": "Feature", "properties": {"norad_id": 38067, "name": "COSMOS 2251 DEB", "group": "cosmos-2251-debris", "lat": -70.83511871667466, "lon": -118.89934523168704, "alt_km": 744.3149384270073, "timestamp": "2025-12-01T03:58:49.149451+00:00", "meta": {"OBJECT_NAME": "COSMOS 2251 DEB", "OBJECT_ID": "1993-036BRZ", "EPOCH": "2025-11-29T04:46:36.876288", "MEAN_MOTION": 14.61044936, "ECCENTRICITY": 0.00691529, "INCLINATION": 74.017, "RA_OF_ASC_NODE": 300.4181, "ARG_OF_PERICENTER": 91.9303, "MEAN_ANOMALY": 288.2542, "EPHEMERIS_TYPE": 0, "CLASSIFICATION_TYPE": "U", "NORAD_CAT_ID": 38067, "ELEMENT_SET_NO": 999, "REV_AT_EPOCH": 62358, "BSTAR": 0.00037425936, "MEAN_MOTION_DOT": 1.87e-05, "MEAN_MOTION_DDOT": 0, "GROUP": "cosmos-2251-debris"}, "tle": {"line1": "1 38067U 93036BRZ 25333.19903792  .00001870  00000+0  37426-3 0  9991", "line2": "2 38067  74.0170 300.4181 0069152  91.9303 288.2542 14.61044936623583"}}, "geometry": {"type": "Point", "coordinates": [-118.89934523168704, -70.83511871667466]}}, {"type": "Feature", "properties": {"norad_id": 38068, "name": "COSMOS 2251 DEB", "group": "cosmos-2251-debris", "lat": 9.250182935737957, "lon": -27.818104827089517, "alt_km": 762.465741752214, "timestamp": "2025-12-01T03:58:49.149461+00:00", "meta": {"OBJECT_NAME": "COSMOS 2251 DEB", "OBJECT_ID": "1993-036BSA", "EPOCH": "2025-11-26T00:12:22.263264", "MEAN_MOTION": 14.35960004, "ECCENTRICITY": 0.00240903, "INCLINATION": 74.0219, "RA_OF_ASC_NODE": 338.9788, "ARG_OF_PERICENTER": 72.1007, "MEAN_ANOMALY": 288.2769, "EPHEMERIS_TYPE": 0, "CLASSIFICATION_TYPE": "U", "NORAD_CAT_ID": 38068, "ELEMENT_SET_NO": 999, "REV_AT_EPOCH": 66406, "BSTAR": 0.00028750999, "MEAN_MOTION_DOT": 8.11e-06, "MEAN_MOTION_DDOT": 0, "GROUP": "cosmos-2251-debris"}, "tle": {"line1": "1 38068U 93036BSA 25330.00859101  .00000811  00000+0  28751-3 0  9998", "line2": "2 38068  74.0219 338.9788 0024090  72.1007 288.2769 14.35960004664064"}}, "geometry": {"type": "Point", "coordinates": [-27.818104827089517, 9.250182935737957]}}, {"type": "Feature", "properties": {"norad_id": 38197, "name": "COSMOS 2251 DEB", "group": "cosmos-2251-debris", "lat": -54.181628289673434, "lon": -136.71343074904794, "alt_km": 574.3617504240528, "timestamp": "2025-12-01T03:58:49.149471+00:00", "meta": {"OBJECT_NAME": "COSMOS 2251 DEB", "OBJECT_ID": "1993-036BSM", "EPOCH": "2025-11-29T10:08:26.020896", "MEAN_MOTION": 14.72740319, "ECCENTRICITY": 0.01294631, "INCLINATION": 73.9376, "RA_OF_ASC_NODE": 23.1725, "ARG_OF_PERICENTER": 263.6209, "MEAN_ANOMALY": 95.0207, "EPHEMERIS_TYPE": 0, "CLASSIFICATION_TYPE": "U", "NORAD_CAT_ID": 38197, "ELEMENT_SET_NO": 999, "REV_AT_EPOCH": 85559, "BSTAR": 0.0043855654, "MEAN_MOTION_DOT": 0.00032095, "MEAN_MOTION_DDOT": 0, "GROUP": "cosmos-2251-debris"}, "tle": {"line1": "1 38197U 93036BSM 25333.42252339  .00032095  00000+0  43856-2 0  9991", "line2": "2 38197  73.9376  23.1725 0129463 263.6209  95.0207 14.72740319855591"}}, "geometry": {"type": "Point", "coordinates": [-136.71343074904794, -54.181628289673434]}}, {"type": "Feature", "properties": {"norad_id": 38199, "name": "COSMOS 2251 DEB", "group": "cosmos-2251-debris", "lat": -47.15348359449463, "lon": -80.72011237724138, "alt_km": 1230.9908131869752, "timestamp": "2025-12-01T03:58:49.149483+00:00", "meta": {"OBJECT_NAME": "COSMOS 2251 DEB", "OBJECT_ID": "1993-036BSP", "EPOCH": "2025-11-27T23:12:19.218240", "MEAN_MOTION": 13.64769846, "ECCENTRICITY": 0.03690733, "INCLINATION": 73.9549, "RA_OF_ASC_NODE": 86.4587, "ARG_OF_PERICENTER": 15.9405, "MEAN_ANOMALY": 345.2961, "EPHEMERIS_TYPE": 0, "CLASSIFICATION_TYPE": "U", "NORAD_CAT_ID": 38199, "ELEMENT_SET_NO": 999, "REV_AT_EPOCH": 60820, "BSTAR": 0.00048524509, "MEAN_MOTION_DOT": 6e-06, "MEAN_MOTION_DDOT": 0, "GROUP": "cosmos-2251-debris"}, "tle": {"line1": "1 38199U 93036BSP 25331.96688910  .00000600  00000+0  48525-3 0  9994", "line2": "2 38199  73.9549  86.4587 0369073  15.9405 345.2961 13.64769846608209"}}, "geometry": {"type": "Point", "coordinates": [-80.72011237724138, -47.15348359449463]}}, {"type": "Feature", "properties": {"norad_id": 38208, "name": "COSMOS 2251 DEB", "group": "cosmos-2251-debris", "lat": 47.53067091230928, "lon": -96.38551238902977, "alt_km": 613.2184876638739, "timestamp": "2025-12-01T03:58:49.149494+00:00", "meta": {"OBJECT_NAME": "COSMOS 2251 DEB", "OBJECT_ID": "1993-036BSY", "EPOCH": "2025-11-29T19:42:15.160320", "MEAN_MOTION": 14.8303327, "ECCENTRICITY": 0.00044336, "INCLINATION": 74.0051, "RA_OF_ASC_NODE": 104.5425, "ARG_OF_PERICENTER": 187.118, "MEAN_ANOMALY": 325.6246, "EPHEMERIS_TYPE": 0, "CLASSIFICATION_TYPE": "U", "NORAD_CAT_ID": 38208, "ELEMENT_SET_NO": 999, "REV_AT_EPOCH": 70967, "BSTAR": 0.0025562759, "MEAN_MOTION_DOT": 0.00020829, "MEAN_MOTION_DDOT": 0, "GROUP": "cosmos-2251-debris"}, "tle": {"line1": "1 38208U 93036BSY 25333.82100880  .00020829  00000+0  25563-2 0  9998", "line2": "2 38208  74.0051 104.5425 0004433 187.1180 325.6246 14.83033270709679"}}, "geometry": {"type": "Point", "coordinates": [-96.38551238902977, 47.53067091230928]}}, {"type": "Feature", "properties": {"norad_id": 38212, "name": "COSMOS 2251 DEB", "group": "cosmos-2251-debris", "lat": -32.562320759134806, "lon": 88.77108141244148, "alt_km": 702.8132499244048, "timestamp": "2025-12-01T03:58:49.149507+00:00", "meta": {"OBJECT_NAME": "COSMOS 2251 DEB", "OBJECT_ID": "1993-036BTC", "EPOCH": "2025-11-30T02:08:11.826528", "MEAN_MOTION": 14.77531577, "ECCENTRICITY": 0.00935039, "INCLINATION": 74.0506, "RA_OF_ASC_NODE": 101.4043, "ARG_OF_PERICENTER": 172.1987, "MEAN_ANOMALY": 188.0671, "EPHEMERIS_TYPE": 0, "CLASSIFICATION_TYPE": "U", "NORAD_CAT_ID": 38212, "ELEMENT_SET_NO": 999, "REV_AT_EPOCH": 81123, "BSTAR": 0.000758158, "MEAN_MOTION_DOT": 5.788e-05, "MEAN_MOTION_DDOT": 0, "GROUP": "cosmos-2251-debris"}, "tle": {"line1": "1 38212U 93036BTC 25334.08902577  .00005788  00000+0  75816-3 0  9999", "line2": "2 38212  74.0506 101.4043 0093503 172.1987 188.0671 14.77531577811231"}}, "geometry": {"type": "Point", "coordinates": [88.77108141244148, -32.562320759134806]}}, {"type": "Feature", "properties": {"norad_id": 38220, "name": "COSMOS 2251 DEB", "group": "cosmos-2251-debris", "lat": -39.77018582002453, "lon": -74.62590979808712, "alt_km": 599.570177821779, "timestamp": "2025-12-01T03:58:49.149517+00:00", "meta": {"OBJECT_NAME": "COSMOS 2251 DEB", "OBJECT_ID": "1993-036BTL", "EPOCH": "2025-11-28T00:56:39.427008", "MEAN_MOTION": 14.91478586, "ECCENTRICITY": 0.00043038, "INCLINATION": 74.0143, "RA_OF_ASC_NODE": 97.8475, "ARG_OF_PERICENTER": 123.0832, "MEAN_ANOMALY": 237.0764, "EPHEMERIS_TYPE": 0, "CLASSIFICATION_TYPE": "U", "NORAD_CAT_ID": 38220, "ELEMENT_SET_NO": 999, "REV_AT_EPOCH": 71151, "BSTAR": 0.0037129023, "MEAN_MOTION_DOT": 0.0003733, "MEAN_MOTION_DDOT": 0, "GROUP": "cosmos-2251-debris"}, "tle": {"line1": "1 38220U 93036BTL 25332.03934522  .00037330  00000+0  37129-2 0  9998", "line2": "2 38220  74.0143  97.8475 0004303 123.0832 237.0764 14.91478586711512"}}, "geometry": {"type": "Point", "coordinates": [-74.62590979808712, -39.77018582002453]}}]}